[{"OBJECT_NAME":"KUZGTU 1 (RS47S)","OBJECT_ID":"2023-091AV","EPOCH":"2026-03-09T22:22:51.965760","MEAN_MOTION":15.27481352,"ECCENTRICITY":0.0012896,"INCLINATION":97.5178,"RA_OF_ASC_NODE":132.5224,"ARG_OF_PERICENTER":89.3666,"MEAN_ANOMALY":270.9051,"EPHEMERIS_TYPE":0,"CLASSIFICATION_TYPE":"U","NORAD_CAT_ID":57217,"ELEMENT_SET_NO":999,"REV_AT_EPOCH":14921,"BSTAR":0.00057711473,"MEAN_MOTION_DOT":0.00015496,"MEAN_MOTION_DDOT":0},{"OBJECT_NAME":"STARLINK-32717","OBJECT_ID":"2025-003E","EPOCH":"2026-03-09T22:54:16.037856","MEAN_MOTION":15.27607852,"ECCENTRICITY":0.00010326,"INCLINATION":42.9971,"RA_OF_ASC_NODE":287.3395,"ARG_OF_PERICENTER":277.3665,"MEAN_ANOMALY":82.7069,"EPHEMERIS_TYPE":0,"CLASSIFICATION_TYPE":"U","NORAD_CAT_ID":62491,"ELEMENT_SET_NO":999,"REV_AT_EPOCH":6671,"BSTAR":0.0012106883,"MEAN_MOTION_DOT":0.00033232,"MEAN_MOTION_DDOT":0}]
